NORAD_CAT_ID,OBJECT_NAME,OBJECT_TYPE,EPOCH,MEAN_MOTION,ECCENTRICITY,INCLINATION,RA_OF_ASC_NODE,ARG_OF_PERICENTER,MEAN_ANOMALY,BSTAR,MEAN_MOTION_DOT,MEAN_MOTION_DDOT,TLE_LINE0,TLE_LINE1,TLE_LINE2,SEMIMAJOR_AXIS,PERIOD,APOGEE,PERIGEE,DECAYED
53727.0,STARLINK-4701,PAYLOAD,2023-10-08 07:28:58,15.08842165,0.0001509,53.217,259.751,102.0194,258.0967,3.5003e-05,2.69e-06,0.0,0 STARLINK-4701,1 53727U 22107AD  23281.31178968  .00000269  00000-0  35003-4 0  9997,2 53727  53.2170 259.7510 0001509 102.0194 258.0967 15.08842165 60592,6917.874,95.437,540.783,538.695,0.0
53727.0,STARLINK-4701,PAYLOAD,2023-10-08 15:25:54,15.08844091,0.0001621,53.2178,258.2647,91.5487,268.5691,6.4371e-05,7.37e-06,0.0,0 STARLINK-4701,1 53727U 22107AD  23281.64299000  .00000737  00000-0  64371-4 0  9994,2 53727  53.2178 258.2647 0001621  91.5487 268.5691 15.08844091 61240,6917.868,95.437,540.854,538.611,0.0
53727.0,STARLINK-4701,PAYLOAD,2023-10-09 07:19:45,15.08852468,0.0001572,53.217,255.2901,101.3091,258.8078,0.00033289,5.016e-05,0.0,0 STARLINK-4701,1 53727U 22107AD  23282.30538836  .00005016  00000-0  33289-3 0  9999,2 53727  53.2170 255.2901 0001572 101.3091 258.8078 15.08852468 61347,6917.842,95.437,540.795,538.62,0.0
53727.0,STARLINK-4701,PAYLOAD,2023-10-10 02:24:23,15.0884263,0.0001661,53.2164,251.7222,102.9563,257.1615,0.00011259,1.504e-05,0.0,0 STARLINK-4701,1 53727U 22107AD  23283.10027193  .00001504  00000-0  11259-3 0  9998,2 53727  53.2164 251.7222 0001661 102.9563 257.1615 15.08842630 60862,6917.872,95.437,540.886,538.588,0.0
53727.0,STARLINK-4701,PAYLOAD,2023-10-10 07:10:32,15.08846995,0.0001486,53.2158,250.8284,91.0627,269.0536,0.00021285,3.102e-05,0.0,0 STARLINK-4701,1 53727U 22107AD  23283.29899056  .00003102  00000-0  21285-3 0  9999,2 53727  53.2158 250.8284 0001486  91.0627 269.0536 15.08846995 61499,6917.859,95.437,540.752,538.696,0.0
53727.0,STARLINK-4701,PAYLOAD,2023-10-10 21:29:01,15.08835053,0.0001799,53.2163,248.1529,91.346,268.7738,1.8876e-05,1.2e-07,0.0,0 STARLINK-4701,1 53727U 22107AD  23283.89515667  .00000012  00000-0  18876-4 0  9998,2 53727  53.2163 248.1529 0001799  91.3460 268.7738 15.08835053 61585,6917.896,95.438,541.005,538.516,0.0
53727.0,STARLINK-4701,PAYLOAD,2023-10-11 03:50:34,15.08835839,0.000131,53.2154,246.9644,95.9372,264.1769,8.8812e-05,1.126e-05,0.0,0 STARLINK-4701,1 53727U 22107AD  23284.16011665  .00001126  00000-0  88812-4 0  9992,2 53727  53.2154 246.9644 0001310  95.9372 264.1769 15.08835839 61025,6917.893,95.438,540.664,538.852,0.0
53727.0,STARLINK-4701,PAYLOAD,2023-10-11 07:01:20,15.08842209,0.0001531,53.2152,246.3681,102.0217,258.0947,0.00057128,8.816e-05,0.0,0 STARLINK-4701,1 53727U 22107AD  23284.29259513  .00008816  00000-0  57128-3 0  9990,2 53727  53.2152 246.3681 0001531 102.0217 258.0947 15.08842209 61648,6917.874,95.437,540.798,538.68,0.0
53727.0,STARLINK-4701,PAYLOAD,2023-10-12 03:41:21,15.08842291,0.0001603,53.2158,242.5012,105.5784,254.5385,0.00036682,5.555e-05,0.0,0 STARLINK-4701,1 53727U 22107AD  23285.15371827  .00005555  00000-0  36682-3 0  9998,2 53727  53.2158 242.5012 0001603 105.5784 254.5385 15.08842291 61173,6917.873,95.437,540.847,538.629,0.0
53727.0,STARLINK-4701,PAYLOAD,2023-10-12 06:52:07,15.08847336,0.0001582,53.2168,241.9048,104.0401,256.0767,0.000379,5.75e-05,0.0,0 STARLINK-4701,1 53727U 22107AD  23285.28619639  .00005750  00000-0  37900-3 0  9999,2 53727  53.2168 241.9048 0001582 104.0401 256.0767 15.08847336 61796,6917.858,95.437,540.817,538.629,0.0
53727.0,STARLINK-4701,PAYLOAD,2023-10-12 14:49:03,15.08842312,0.0001488,53.2172,240.4188,99.5968,260.5193,0.00028421,4.238e-05,0.0,0 STARLINK-4701,1 53727U 22107AD  23285.61739915  .00004238  00000-0  28421-3 0  9994,2 53727  53.2172 240.4188 0001488  99.5968 260.5193 15.08842312 61849,6917.873,95.437,540.768,538.709,0.0
53727.0,STARLINK-4701,PAYLOAD,2023-10-13 03:32:08,15.08845094,0.0001408,53.2158,238.0421,93.3858,266.7295,0.00031087,4.664e-05,0.0,0 STARLINK-4701,1 53727U 22107AD  23286.14731987  .00004664  00000-0  31087-3 0  9999,2 53727  53.2158 238.0421 0001408  93.3858 266.7295 15.08845094 61322,6917.865,95.437,540.704,538.756,0.0
53727.0,STARLINK-4701,PAYLOAD,2023-10-13 06:42:54,15.08847087,0.0001644,53.2172,237.4445,99.7595,260.3583,0.0003375,5.088e-05,0.0,0 STARLINK-4701,1 53727U 22107AD  23286.27979776  .00005088  00000-0  33750-3 0  9993,2 53727  53.2172 237.4445 0001644  99.7595 260.3583 15.08847087 61949,6917.859,95.437,540.861,538.586,0.0
53727.0,STARLINK-4701,PAYLOAD,2023-10-14 06:33:40,15.0886625,0.0001516,53.2177,232.9838,98.055,262.0615,0.00079578,0.00012409,0.0,0 STARLINK-4701,1 53727U 22107AD  23287.27339068  .00012409  00000-0  79578-3 0  9991,2 53727  53.2177 232.9838 0001516  98.0550 262.0615 15.08866250 61499,6917.8,95.436,540.714,538.616,0.0
53727.0,STARLINK-4701,PAYLOAD,2023-10-14 20:52:09,15.08836721,0.0002419,53.218,230.3067,97.6737,262.453,-3.5259e-05,-8.49e-06,0.0,0 STARLINK-4701,1 53727U 22107AD  23287.86955984 -.00000849  00000-0 -35259-4 0  9993,2 53727  53.2180 230.3067 0002419  97.6737 262.4530 15.08836721 61584,6917.89,95.438,541.429,538.082,0.0
53727.0,STARLINK-4701,PAYLOAD,2023-10-15 03:13:42,15.08826416,0.0001391,53.2174,229.1167,99.5626,260.5523,-0.00019262,-3.351e-05,0.0,0 STARLINK-4701,1 53727U 22107AD  23288.13452368 -.00003351  00000-0 -19262-3 0  9998,2 53727  53.2174 229.1167 0001391  99.5626 260.5523 15.08826416 61626,6917.922,95.438,540.749,538.825,0.0
53727.0,STARLINK-4701,PAYLOAD,2023-10-15 06:24:29,15.08826485,0.0001414,53.2174,228.5227,100.1376,259.9775,-0.00016563,-2.922e-05,0.0,0 STARLINK-4701,1 53727U 22107AD  23288.26700589 -.00002922  00000-0 -16563-3 0  9997,2 53727  53.2174 228.5227 0001414 100.1376 259.9775 15.08826485 62249,6917.922,95.438,540.765,538.809,0.0
53727.0,STARLINK-4701,PAYLOAD,2023-10-16 06:15:15,15.08861988,0.0001266,53.2164,224.0656,98.1284,261.9852,0.0010405,0.0001632,0.0,0 STARLINK-4701,1 53727U 22107AD  23289.26060149  .00016320  00000-0  10405-2 0  9992,2 53727  53.2164 224.0656 0001266  98.1284 261.9852 15.08861988 61799,6917.813,95.436,540.554,538.802,0.0
53727.0,STARLINK-4701,PAYLOAD,2023-10-17 12:27:35,15.08843517,0.0001506,53.2166,218.4131,93.8101,266.3063,0.00058477,9.032e-05,0.0,0 STARLINK-4701,1 53727U 22107AD  23290.51916438  .00009032  00000-0  58477-3 0  9997,2 53727  53.2166 218.4131 0001506  93.8101 266.3063 15.08843517 61985,6917.87,95.437,540.776,538.693,0.0
53727.0,STARLINK-4701,PAYLOAD,2023-10-18 02:46:04,15.08839649,0.0001633,53.2163,215.7369,94.8584,265.2595,0.00099585,0.00015596,0.0,0 STARLINK-4701,1 53727U 22107AD  23291.11532752  .00015596  00000-0  99585-3 0  9994,2 53727  53.2163 215.7369 0001633  94.8584 265.2595 15.08839649 62678,6917.881,95.438,540.876,538.617,0.0
53727.0,STARLINK-4701,PAYLOAD,2023-10-18 12:18:23,15.08836796,0.0001675,53.2168,213.9568,89.8045,270.3139,0.00046794,7.166e-05,0.0,0 STARLINK-4701,1 53727U 22107AD  23291.51277053  .00007166  00000-0  46794-3 0  9996,2 53727  53.2168 213.9568 0001675  89.8045 270.3139 15.08836796 62138,6917.89,95.438,540.914,538.596,0.0
53727.0,STARLINK-4701,PAYLOAD,2023-10-19 04:12:14,15.08859154,0.0001401,53.2178,210.9806,92.0058,268.1094,0.00084596,0.00013208,0.0,0 STARLINK-4701,1 53727U 22107AD  23292.17516434  .00013208  00000-0  84596-3 0  9994,2 53727  53.2178 210.9806 0001401  92.0058 268.1094 15.08859154 62237,6917.822,95.436,540.656,538.718,0.0
53727.0,STARLINK-4701,PAYLOAD,2023-10-20 04:03:00,15.08865916,0.0001689,53.2174,206.5192,108.6762,251.4413,0.0006897,0.00010713,0.0,0 STARLINK-4701,1 53727U 22107AD  23293.16875678  .00010713  00000-0  68970-3 0  9998,2 53727  53.2174 206.5192 0001689 108.6762 251.4413 15.08865916 62385,6917.801,95.436,540.835,538.498,0.0
53727.0,STARLINK-4701,PAYLOAD,2023-10-20 18:21:29,15.08843368,0.0001697,53.2172,203.8452,87.5424,272.5763,-0.00077528,-0.00012607,0.0,0 STARLINK-4701,1 53727U 22107AD  23293.76492463 -.00012607  00000-0 -77528-3 0  9996,2 53727  53.2172 203.8452 0001697  87.5424 272.5763 15.08843368 62470,6917.87,95.437,540.909,538.561,0.0
53727.0,STARLINK-4701,PAYLOAD,2023-10-20 21:32:15,15.08831898,0.0001517,53.2174,203.2491,99.9611,260.1553,0.00026849,3.987e-05,0.0,0 STARLINK-4701,1 53727U 22107AD  23293.89740590  .00003987  00000-0  26849-3 0  9996,2 53727  53.2174 203.2491 0001517  99.9611 260.1553 15.08831898 63099,6917.905,95.438,540.82,538.721,0.0
53727.0,STARLINK-4701,PAYLOAD,2023-10-21 03:53:48,15.08831745,0.0001492,53.2169,202.0592,97.9867,262.1294,0.00048831,7.49e-05,0.0,0 STARLINK-4701,1 53727U 22107AD  23294.16236903  .00007490  00000-0  48831-3 0  9993,2 53727  53.2169 202.0592 0001492  97.9867 262.1294 15.08831745 63135,6917.906,95.438,540.803,538.738,0.0
53727.0,STARLINK-4701,PAYLOAD,2023-10-21 18:12:16,15.08851884,0.0001362,53.2171,199.3842,93.4652,266.6496,0.00067008,0.00010396,0.0,0 STARLINK-4701,1 53727U 22107AD  23294.75852501  .00010396  00000-0  67008-3 0  9992,2 53727  53.2171 199.3842 0001362  93.4652 266.6496 15.08851884 62625,6917.844,95.437,540.651,538.767,0.0
53727.0,STARLINK-4701,PAYLOAD,2023-10-21 22:58:25,15.08867589,0.0001388,53.2164,198.4922,91.0124,269.1027,0.0011555,0.00018163,0.0,0 STARLINK-4701,1 53727U 22107AD  23294.95724128  .00018163  00000-0  11555-2 0  9992,2 53727  53.2164 198.4922 0001388  91.0124 269.1027 15.08867589 63259,6917.796,95.436,540.621,538.701,0.0
53727.0,STARLINK-4701,PAYLOAD,2023-10-22 03:44:34,15.08877077,0.00014,53.2167,197.6002,92.4373,267.6779,0.0011288,0.00017741,0.0,0 STARLINK-4701,1 53727U 22107AD  23295.15595566  .00017741  00000-0  11288-2 0  9991,2 53727  53.2167 197.6002 0001400  92.4373 267.6779 15.08877077 62684,6917.767,95.435,540.601,538.664,0.0
53727.0,STARLINK-4701,PAYLOAD,2023-10-22 10:06:07,15.08846239,0.0002487,53.217,196.4114,78.5375,281.5896,-0.00010901,-2.023e-05,0.0,0 STARLINK-4701,1 53727U 22107AD  23295.42092478 -.00002023  00000-0 -10901-3 0  9996,2 53727  53.2170 196.4114 0002487  78.5375 281.5896 15.08846239 62728,6917.861,95.437,541.447,538.006,0.0
